STARLINK-35621          
1 66156U 25240L   25318.25002315 -.00034262  00000+0 -61046-3 0  9992
2 66156  53.1594 241.0284 0001448  76.2486 359.8168 15.49317194  4327
STARLINK-35594          
1 66157U 25240M   25318.25002315  .00128442  00000+0  22820-2 0  9991
2 66157  53.1593 241.0247 0000855  68.6876   9.2195 15.49280211  4320
STARLINK-35587          
1 66158U 25240N   25318.25002315  .00024880  00000+0  45391-3 0  9992
2 66158  53.1594 241.0203 0000796  54.3706  25.4633 15.49313123  4328
STARLINK-35586          
1 66159U 25240P   25318.25002315 -.00026370  00000+0 -46762-3 0  9994
2 66159  53.1593 241.0163 0001303  83.2490 358.5810 15.49311254  4329
STARLINK-35636          
1 66160U 25240Q   25318.25002315 -.00037501  00000+0 -66912-3 0  9993
2 66160  53.1591 241.0077 0001455  75.1218  10.5268 15.49321211  4325
STARLINK-35635          
1 66161U 25240R   25318.25002315  .00090635  00000+0  16189-2 0  9999
2 66161  53.1595 241.0120 0000873  61.6616  22.0076 15.49308589  4322
STARLINK-35633          
1 66162U 25240S   25318.25002315 -.01949700  00000+0 -30125-1 0  9994
2 66162  53.1596 240.7077 0001302  95.8722 139.1470 15.57013197  4321
STARLINK-35607          
1 66163U 25240T   25318.25002315 -.01950963  00000+0 -30145-1 0  9990
2 66163  53.1596 240.7039 0001383  99.1344 137.8010 15.57013701  4322
STARLINK-35614          
1 66164U 25240U   25318.25002315 -.01966340  00000+0 -30408-1 0  9999
2 66164  53.1596 240.6948 0001419  94.7479 146.0217 15.57020822  4324
STARLINK-35575          
1 66165U 25240V   25318.25002315 -.01961589  00000+0 -30324-1 0  9997
2 66165  53.1596 240.6994 0001462  96.5252 142.3240 15.57020489  4327
STARLINK-35624          
1 66166U 25240W   25318.25002315 -.01949879  00000+0 -30129-1 0  9999
2 66166  53.1597 240.6878 0001301  96.1044 148.5001 15.57012717  4325
STARLINK-35641          
1 66167U 25240X   25318.25002315 -.01962516  00000+0 -30346-1 0  9994
2 66167  53.1595 240.6913 0001219  98.8784 143.8087 15.57018048  4327
